EYESAT-1 (AO-27)        
1 22825U 93061C   17127.89001409 -.00000014  00000-0  12343-4 0  9990
2 22825  98.8085  92.9844 0009561  89.1154 271.1123 14.29994770231649
CUTE-1 (CO-55)          
1 27844U 03031E   17127.89889542  .00000059  00000-0  46478-4 0  9990
2 27844  98.6903 137.4906 0010984 102.8342 257.4063 14.22033761718556
CUBESAT XI-IV (CO-57)   
1 27848U 03031J   17127.95813491  .00000049  00000-0  41994-4 0  9998
2 27848  98.6996 137.7906 0010834 110.9419 249.2918 14.21648820718458
CUBESAT XI 5            
1 28895U 05043F   17127.69518923  .00000136  00000-0  35037-4 0  9997
2 28895  97.8604 291.8642 0015394 271.7344  88.2095 14.63383936614335
CUTE-1.7+APD II (CO-65) 
1 32785U 08021C   17127.48831791  .00000196  00000-0  27125-4 0  9992
2 32785  97.5696 153.6133 0011816 307.6297  52.3847 14.87863379488771
COMPASS-1               
1 32787U 08021E   17127.65729320  .00000423  00000-0  46420-4 0  9999
2 32787  97.5636 162.3924 0010958 273.9528  86.0439 14.92551895489450
AAUSAT-II               
1 32788U 08021F   17127.64209977  .00000731  00000-0  74032-4 0  9992
2 32788  97.5625 165.1478 0010311 265.1646  94.8397 14.93819734489620
DELFI-C3 (DO-64)        
1 32789U 08021G   17127.72854755  .00000910  00000-0  68845-4 0  9996
2 32789  97.5620 186.8086 0011635 234.7235 125.2903 15.04735300490686
CANX-2                  
1 32790U 08021H   17127.52789642  .00000202  00000-0  27914-4 0  9994
2 32790  97.5673 152.0539 0012510 309.0740  50.9363 14.87593907488714
SEEDS II (CO-66)        
1 32791U 08021J   17127.28457324  .00000364  00000-0  43028-4 0  9990
2 32791  97.5669 157.6561 0011909 291.8035  68.1916 14.90185815488974
SWISSCUBE               
1 35932U 09051B   17127.93409023  .00000125  00000-0  39369-4 0  9997
2 35932  98.4893 265.7320 0007967  24.4592 335.6981 14.55999335404427
BEESAT                  
1 35933U 09051C   17127.92374567  .00000118  00000-0  37496-4 0  9992
2 35933  98.4929 267.0075 0006483  39.1654 321.0011 14.56120582404484
ITUPSAT 1               
1 35935U 09051E   17127.88957525  .00000105  00000-0  35133-4 0  9992
2 35935  98.5041 267.2258 0008632  30.1736 329.9956 14.55315574404343
TISAT 1                 
1 36799U 10035E   17127.86098372  .00000321  00000-0  39052-4 0  9993
2 36799  98.0560 249.7857 0013932  99.3603 260.9190 14.90351359369773
M-CUBED & EXP-1 PRIME   
1 37855U 11061F   17127.78610337  .00001579  00000-0  90665-4 0  9992
2 37855 101.7226 338.6902 0181157 200.7995 158.5777 15.02890209300723
HORYU 2                 
1 38340U 12025D   17127.93661068  .00000207  00000-0  38713-4 0  9990
2 38340  98.3764 130.4411 0012909  63.3220 296.9308 14.75315165256949
STRAND-1                
1 39090U 13009E   17127.85877045  .00000053  00000-0  34146-4 0  9996
2 39090  98.5580 333.6685 0010304  63.2415 296.9823 14.34963029219676
BRITE-AUSTRIA           
1 39091U 13009F   17127.59581034  .00000044  00000-0  30915-4 0  9998
2 39091  98.5542 332.8087 0011671  70.6493 289.5953 14.35025532219668
UNIBRITE                
1 39092U 13009G   17127.87054080  .00000016  00000-0  21061-4 0  9997
2 39092  98.5550 332.7759 0010488  64.1926 296.0340 14.34899878219683
AIST-2                  
1 39133U 13015D   17127.94719432  .00000065  00000-0  17337-4 0  9992
2 39133  64.8746  52.7230 0035934 289.2476  70.4757 15.04260037221853
SOMP                    
1 39134U 13015E   17127.95691242  .00000872  00000-0  52481-4 0  9997
2 39134  64.8677 356.3013 0033920 278.9776  80.7511 15.17670674222994
BEESAT-2                
1 39136U 13015G   17127.91014036  .00000615  00000-0  42934-4 0  9992
2 39136  64.8710   6.5850 0031113 289.5300  70.2466 15.14981446222789
NEE-01 PEGASUS          
1 39151U 13018B   17127.79947629  .00000168  00000-0  29336-4 0  9995
2 39151  97.9824 219.5762 0017320 176.2451 183.8893 14.79697736217561
CUBEBUG-1 (CAPITAN BETO)
1 39153U 13018D   17127.80205386  .00000189  00000-0  31874-4 0  9999
2 39153  97.9843 220.3164 0017273 174.5791 185.5611 14.80158341217614
ESTCUBE 1               
1 39161U 13021C   17127.75014529  .00000187  00000-0  37836-4 0  9995
2 39161  98.0270 214.2777 0007863 271.9045  88.1254 14.71878402214805
POPACS 1                
1 39268U 13055D   17127.79811345  .00005857  00000-0  16969-3 0  9997
2 39268  81.0068  50.3329 0652650 338.1826  19.2671 14.30574458184943
POPACS 2                
1 39269U 13055E   17127.82432012  .00003851  00000-0  11305-3 0  9993
2 39269  81.0182  64.3528 0702631  14.8769 347.1952 14.19642475184358
POPACS 3                
1 39270U 13055F   17127.82993836  .00002118  00000-0  65824-4 0  9992
2 39270  81.0173  71.9879 0727052  38.2713 326.7818 14.12960155164371
FIREFLY                 
1 39404U 13064AA  17127.60801911  .00028289  00000-0  20057-3 0  9994
2 39404  40.4991 199.1224 0005559 121.4385 238.6987 15.73216513191261
ZACUBE-1 (TSHEPISOSAT)  
1 39417U 13066B   17127.68157206  .00000205  00000-0  32462-4 0  9991
2 39417  97.6336 171.8792 0060385  43.7021 316.8949 14.80684853186781
WNISAT-1                
1 39423U 13066H   17127.91178865  .00000131  00000-0  35651-4 0  9999
2 39423  97.6807 119.6251 0175025 203.7122 155.5948 14.52833294183383
TRITON-1                
1 39427U 13066M   17127.96019809  .00000177  00000-0  36114-4 0  9995
2 39427  97.6397 146.0100 0115870 117.3224 243.9834 14.67435269184959
GOMX 1                  
1 39430U 13066Q   17127.91086978  .00000184  00000-0  42272-4 0  9995
2 39430  97.6647 130.0208 0152241 169.6727 190.7662 14.58845113183875
BRITE-PL                
1 39431U 13066R   17127.93757188  .00000008  00000-0  12397-4 0  9996
2 39431  97.7033 109.2730 0201407 240.1274 117.9774 14.46833964182439
HUMSAT-D                
1 39433U 13066T   17127.73075133  .00000508  00000-0  56077-4 0  9997
2 39433  97.6555 192.0419 0030888 354.5809   5.5071 14.91382750187989
EAGLE 2                 
1 39436U 13066W   17127.22155251  .00014456  00000-0  42222-3 0  9997
2 39436  97.7056 231.2488 0011494 221.1848 138.8528 15.35360754190367
CUBEBUG-2 (LO-74)       
1 39440U 13066AA  17127.89338631  .00000206  00000-0  35702-4 0  9994
2 39440  97.6323 161.5763 0082310  71.5851 289.4286 14.75425874184955
NEE-02 KRYSAOR          
1 39441U 13066AB  17127.60669174  .00000152  00000-0  28716-4 0  9990
2 39441  97.6305 160.0753 0083726  75.7591 285.2900 14.74599226184845
FUNCUBE-1 (AO-73)       
1 39444U 13066AE  17127.68117236  .00000268  00000-0  39720-4 0  9993
2 39444  97.6351 172.8807 0059503  40.7060 319.8578 14.81411328185029
UWE-3                   
1 39446U 13066AG  17127.79771672  .00000215  00000-0  35378-4 0  9994
2 39446  97.6318 166.4658 0071802  57.8129 303.0020 14.77958334184640
BRITE-TORONTO           
1 40020U 14033L   17127.70885892  .00000092  00000-0  24162-4 0  9992
2 40020  97.8421   0.2938 0089073  95.6779 265.4591 14.66379897154160
DUCHIFAT-1              
1 40021U 14033M   17127.80024115  .00000328  00000-0  40044-4 0  9996
2 40021  97.9207  40.9038 0014657  75.5977 284.6866 14.89842406156581
FLOCK 1C-10             
1 40023U 14033P   17127.80054925  .00000889  00000-0  10122-3 0  9995
2 40023  97.9228  40.0319 0014331  78.2008 282.0805 14.88646481156492
NANOSATC-BR1            
1 40024U 14033Q   17127.71693007  .00000340  00000-0  41982-4 0  9997
2 40024  97.9167  39.7712 0013890  76.7736 283.5030 14.89174162156520
QB50P1                  
1 40025U 14033R   17127.80937366  .00000254  00000-0  33452-4 0  9994
2 40025  97.9152  38.9645 0014107  78.9611 281.3192 14.88386018156483
FLOCK 1C-7              
1 40026U 14033S   17127.70290200  .00000465  00000-0  54934-4 0  9995
2 40026  97.9261  40.6027 0012724  74.8833 285.3796 14.89375971156529
FLOCK 1C-1              
1 40027U 14033T   17127.70303028  .00000517  00000-0  61385-4 0  9995
2 40027  97.9246  40.1475 0014247  75.1549 285.1245 14.88706364156491
POPSAT-HIP-1            
1 40028U 14033U   17127.70295711  .00000107  00000-0  17696-4 0  9996
2 40028  97.9181  39.1186 0015495  75.8627 284.4325 14.88255529156456
FLOCK 1C-2              
1 40029U 14033V   17127.73234575  .00000933  00000-0  10570-3 0  9991
2 40029  97.9242  40.0409 0015684  73.8865 286.4071 14.88728078156483
FLOCK 1C-4              
1 40031U 14033X   17127.74467526  .00000638  00000-0  74501-4 0  9996
2 40031  97.9244  40.0465 0016207  71.9219 288.3762 14.88585537156472
QB50P2                  
1 40032U 14033Y   17127.71034384  .00000260  00000-0  34406-4 0  9997
2 40032  97.9125  38.0269 0013461  74.7604 285.5100 14.87944561155905
FLOCK 1C-11             
1 40033U 14033Z   17127.71073227  .00000600  00000-0  67830-4 0  9992
2 40033  97.9254  41.2946 0013482  66.2076 294.0582 14.90127476156563
ANTELSAT                
1 40034U 14033AA  17127.68070695  .00000235  00000-0  42714-4 0  9993
2 40034  97.8649  12.8560 0060500  63.7431 296.9978 14.73670947154966
FLOCK 1C-9              
1 40035U 14033AB  17127.78976197  .00000713  00000-0  82209-4 0  9991
2 40035  97.9272  40.4404 0013328  66.4232 293.8378 14.88779096156502
FLOCK 1C-6              
1 40036U 14033AC  17127.81358608  .00000814  00000-0  92694-4 0  9998
2 40036  97.9275  40.6579 0013408  68.0599 292.2029 14.88884937156512
PERSEUS-M2              
1 40037U 14033AD  17127.79844469  .00000107  00000-0  18391-4 0  9998
2 40037  97.9151  36.7670 0015925  78.9491 281.3514 14.86210923155817
FLOCK 1C-5              
1 40038U 14033AE  17127.75347362  .00000543  00000-0  63852-4 0  9991
2 40038  97.9270  40.4202 0015958  67.8709 292.4197 14.88879400156496
PERSEUS-M1              
1 40039U 14033AF  17127.78800560  .00000106  00000-0  18442-4 0  9999
2 40039  97.9158  36.3399 0015758  75.2885 285.0076 14.85835296155764
FLOCK 1C-8              
1 40040U 14033AG  17127.72954288  .00001018  00000-0  10917-3 0  9993
2 40040  97.9305  42.3439 0014521  56.0404 304.2216 14.90811737156607
